start=new Date('2022-08-25T00:00:00.000Z').valueOf();
sats=[{"COUNTRY_CODE":"US","APOAPSIS":"548.255","MEAN_MOTION_DDOT":"0.0000000000000","REF_FRAME":"TEME","OBJECT_NAME":"STARLINK-1201","REV_AT_EPOCH":"14007","BSTAR":"0.00001732000000","EPHEMERIS_TYPE":"0","OBJECT_TYPE":"PAYLOAD","PERIAPSIS":"546.233","EPOCH":"2022-08-24T15:43:41.382048","RCS_SIZE":"LARGE","ELEMENT_SET_NO":"999","INCLINATION":"53.0538","TIME_SYSTEM":"UTC","NORAD_CAT_ID":"45182","TLE_LINE1":"1 45182U 20012E   22236.65534007 -.00000024  00000-0  17320-4 0  9994","SEMIMAJOR_AXIS":"6925.379","MEAN_ELEMENT_THEORY":"SGP4","LAUNCH_DATE":"2020-02-17","DECAY_DATE":null,"CENTER_NAME":"EARTH","MEAN_MOTION_DOT":"-0.00000024","MEAN_MOTION":"15.06390082","FILE":"3546663","CLASSIFICATION_TYPE":"U","ARG_OF_PERICENTER":"81.1831","ECCENTRICITY":"0.00014600","GP_ID":"210932066","SITE":"AFETR","RA_OF_ASC_NODE":"71.2701","MEAN_ANOMALY":"278.9324","OBJECT_ID":"2020-012E","TLE_LINE2":"2 45182  53.0538  71.2701 0001460  81.1831 278.9324 15.06390082140078","PERIOD":"95.593"},{"REF_FRAME":"TEME","COUNTRY_CODE":"US","APOAPSIS":"548.204","MEAN_MOTION_DDOT":"0.0000000000000","OBJECT_TYPE":"PAYLOAD","EPHEMERIS_TYPE":"0","OBJECT_NAME":"STARLINK-1202","REV_AT_EPOCH":"13986","BSTAR":"0.00006675800000","ELEMENT_SET_NO":"999","INCLINATION":"53.0546","EPOCH":"2022-08-24T01:47:42.542880","PERIAPSIS":"546.225","RCS_SIZE":"LARGE","NORAD_CAT_ID":"45183","SEMIMAJOR_AXIS":"6925.349","TLE_LINE1":"1 45183U 20012F   22236.07479795  .00000713  00000-0  66758-4 0  9996","TIME_SYSTEM":"UTC","CENTER_NAME":"EARTH","DECAY_DATE":null,"MEAN_MOTION":"15.06399741","MEAN_MOTION_DOT":"0.00000713","LAUNCH_DATE":"2020-02-17","MEAN_ELEMENT_THEORY":"SGP4","CLASSIFICATION_TYPE":"U","FILE":"3546350","MEAN_ANOMALY":"278.6825","RA_OF_ASC_NODE":"93.8915","ARG_OF_PERICENTER":"81.4325","SITE":"AFETR","ECCENTRICITY":"0.00014290","GP_ID":"210898214","OBJECT_ID":"2020-012F","PERIOD":"95.592","TLE_LINE2":"2 45183  53.0546  93.8915 0001429  81.4325 278.6825 15.06399741139860"},{"APOAPSIS":"548.182","MEAN_MOTION_DDOT":"0.0000000000000","COUNTRY_CODE":"US","REF_FRAME":"TEME","BSTAR":"0.00006287000000","OBJECT_NAME":"STARLINK-1205","REV_AT_EPOCH":"13926","OBJECT_TYPE":"PAYLOAD","EPHEMERIS_TYPE":"0","RCS_SIZE":"LARGE","EPOCH":"2022-08-24T15:54:17.331840","PERIAPSIS":"546.214","INCLINATION":"53.0551","ELEMENT_SET_NO":"999","TIME_SYSTEM":"UTC","SEMIMAJOR_AXIS":"6925.333","TLE_LINE1":"1 45184U 20012G   22236.66270060  .00000655  00000-0  62870-4 0  9992","NORAD_CAT_ID":"45184","MEAN_ELEMENT_THEORY":"SGP4","LAUNCH_DATE":"2020-02-17","MEAN_MOTION":"15.06405200","MEAN_MOTION_DOT":"0.00000655","CENTER_NAME":"EARTH","DECAY_DATE":null,"CLASSIFICATION_TYPE":"U","FILE":"3546663","SITE":"AFETR","GP_ID":"210930566","ECCENTRICITY":"0.00014210","ARG_OF_PERICENTER":"86.3815","RA_OF_ASC_NODE":"71.2502","MEAN_ANOMALY":"273.7336","PERIOD":"95.592","TLE_LINE2":"2 45184  53.0551  71.2502 0001421  86.3815 273.7336 15.06405200139264","OBJECT_ID":"2020-012G"},{"TIME_SYSTEM":"UTC","NORAD_CAT_ID":"45185","TLE_LINE1":"1 45185U 20012H   22236.73089564 -.00000823  00000-0 -36341-4 0  9991","SEMIMAJOR_AXIS":"6925.374","PERIAPSIS":"546.101","EPOCH":"2022-08-24T17:32:29.383296","RCS_SIZE":"LARGE","ELEMENT_SET_NO":"999","INCLINATION":"53.0544","REV_AT_EPOCH":"13990","OBJECT_NAME":"STARLINK-1216","BSTAR":"-0.00003634100000","EPHEMERIS_TYPE":"0","OBJECT_TYPE":"PAYLOAD","COUNTRY_CODE":"US","MEAN_MOTION_DDOT":"0.0000000000000","APOAPSIS":"548.377","REF_FRAME":"TEME","OBJECT_ID":"2020-012H","TLE_LINE2":"2 45185  53.0544  90.9420 0001643  85.7760 274.3416 15.06391738139909","PERIOD":"95.593","ARG_OF_PERICENTER":"85.7760","GP_ID":"210931816","ECCENTRICITY":"0.00016430","SITE":"AFETR","MEAN_ANOMALY":"274.3416","RA_OF_ASC_NODE":"90.9420","FILE":"3546663","CLASSIFICATION_TYPE":"U","MEAN_ELEMENT_THEORY":"SGP4","LAUNCH_DATE":"2020-02-17","DECAY_DATE":null,"CENTER_NAME":"EARTH","MEAN_MOTION_DOT":"-0.00000823","MEAN_MOTION":"15.06391738"},{"ELEMENT_SET_NO":"999","INCLINATION":"53.0553","EPOCH":"2022-08-24T00:22:47.145216","PERIAPSIS":"546.095","RCS_SIZE":"LARGE","NORAD_CAT_ID":"45186","SEMIMAJOR_AXIS":"6925.351","TLE_LINE1":"1 45186U 20012J   22236.01582344  .00001399  00000-0  11278-3 0  9995","TIME_SYSTEM":"UTC","REF_FRAME":"TEME","COUNTRY_CODE":"US","MEAN_MOTION_DDOT":"0.0000000000000","APOAPSIS":"548.337","OBJECT_TYPE":"PAYLOAD","EPHEMERIS_TYPE":"0","REV_AT_EPOCH":"13979","OBJECT_NAME":"STARLINK-1224","BSTAR":"0.00011278000000","RA_OF_ASC_NODE":"94.1565","MEAN_ANOMALY":"289.8851","ARG_OF_PERICENTER":"70.2313","SITE":"AFETR","ECCENTRICITY":"0.00016190","GP_ID":"210899464","OBJECT_ID":"2020-012J","PERIOD":"95.592","TLE_LINE2":"2 45186  53.0553  94.1565 0001619  70.2313 289.8851 15.06399140139798","CENTER_NAME":"EARTH","DECAY_DATE":null,"MEAN_MOTION":"15.06399140","MEAN_MOTION_DOT":"0.00001399","LAUNCH_DATE":"2020-02-17","MEAN_ELEMENT_THEORY":"SGP4","CLASSIFICATION_TYPE":"U","FILE":"3546350"},{"RCS_SIZE":"LARGE","PERIAPSIS":"546.283","EPOCH":"2022-08-23T22:52:32.966112","INCLINATION":"53.0553","ELEMENT_SET_NO":"999","TIME_SYSTEM":"UTC","TLE_LINE1":"1 45187U 20012K   22235.95315933  .00001737  00000-0  13546-3 0  9992","SEMIMAJOR_AXIS":"6925.362","NORAD_CAT_ID":"45187","MEAN_MOTION_DDOT":"0.0000000000000","APOAPSIS":"548.171","COUNTRY_CODE":"US","REF_FRAME":"TEME","BSTAR":"0.00013546000000","REV_AT_EPOCH":"13983","OBJECT_NAME":"STARLINK-1225","EPHEMERIS_TYPE":"0","OBJECT_TYPE":"PAYLOAD","ECCENTRICITY":"0.00013630","GP_ID":"210898714","SITE":"AFETR","ARG_OF_PERICENTER":"76.3642","MEAN_ANOMALY":"283.7499","RA_OF_ASC_NODE":"94.4372","TLE_LINE2":"2 45187  53.0553  94.4372 0001363  76.3642 283.7499 15.06395675139831","PERIOD":"95.592","OBJECT_ID":"2020-012K","MEAN_ELEMENT_THEORY":"SGP4","LAUNCH_DATE":"2020-02-17","MEAN_MOTION_DOT":"0.00001737","MEAN_MOTION":"15.06395675","DECAY_DATE":null,"CENTER_NAME":"EARTH","FILE":"3546350","CLASSIFICATION_TYPE":"U"},{"NORAD_CAT_ID":"45188","SEMIMAJOR_AXIS":"6925.339","TLE_LINE1":"1 45188U 20012L   22236.77881079  .00000710  00000-0  66524-4 0  9998","TIME_SYSTEM":"UTC","ELEMENT_SET_NO":"999","INCLINATION":"53.0538","EPOCH":"2022-08-24T18:41:29.252256","PERIAPSIS":"546.097","RCS_SIZE":"LARGE","OBJECT_TYPE":"PAYLOAD","EPHEMERIS_TYPE":"0","REV_AT_EPOCH":"14047","OBJECT_NAME":"STARLINK-1228","BSTAR":"0.00006652400000","REF_FRAME":"TEME","COUNTRY_CODE":"US","APOAPSIS":"548.310","MEAN_MOTION_DDOT":"0.0000000000000","OBJECT_ID":"2020-012L","PERIOD":"95.592","TLE_LINE2":"2 45188  53.0538  50.7258 0001598  68.9766 291.1393 15.06403217140477","RA_OF_ASC_NODE":"50.7258","MEAN_ANOMALY":"291.1393","ARG_OF_PERICENTER":"68.9766","SITE":"AFETR","GP_ID":"210931065","ECCENTRICITY":"0.00015980","CLASSIFICATION_TYPE":"U","FILE":"3546663","CENTER_NAME":"EARTH","DECAY_DATE":null,"MEAN_MOTION":"15.06403217","MEAN_MOTION_DOT":"0.00000710","LAUNCH_DATE":"2020-02-17","MEAN_ELEMENT_THEORY":"SGP4"},{"NORAD_CAT_ID":"45189","SEMIMAJOR_AXIS":"6925.330","TLE_LINE1":"1 45189U 20012M   22236.08954161  .00002864  00000-0  21106-3 0  9994","TIME_SYSTEM":"UTC","ELEMENT_SET_NO":"999","INCLINATION":"53.0556","EPOCH":"2022-08-24T02:08:56.395104","PERIAPSIS":"546.228","RCS_SIZE":"LARGE","OBJECT_TYPE":"PAYLOAD","EPHEMERIS_TYPE":"0","REV_AT_EPOCH":"13708","OBJECT_NAME":"STARLINK-1230","BSTAR":"0.00021106000000","REF_FRAME":"TEME","COUNTRY_CODE":"US","APOAPSIS":"548.162","MEAN_MOTION_DDOT":"0.0000000000000","OBJECT_ID":"2020-012M","PERIOD":"95.592","TLE_LINE2":"2 45189  53.0556  93.8294 0001396  88.7927 271.3222 15.06406057137080","RA_OF_ASC_NODE":"93.8294","MEAN_ANOMALY":"271.3222","ARG_OF_PERICENTER":"88.7927","SITE":"AFETR","GP_ID":"210899211","ECCENTRICITY":"0.00013960","CLASSIFICATION_TYPE":"U","FILE":"3546350","CENTER_NAME":"EARTH","DECAY_DATE":null,"MEAN_MOTION":"15.06406057","MEAN_MOTION_DOT":"0.00002864","LAUNCH_DATE":"2020-02-17","MEAN_ELEMENT_THEORY":"SGP4"},{"CENTER_NAME":"EARTH","DECAY_DATE":null,"MEAN_MOTION":"15.06385551","MEAN_MOTION_DOT":"0.00002321","MEAN_ELEMENT_THEORY":"SGP4","LAUNCH_DATE":"2020-02-17","CLASSIFICATION_TYPE":"U","FILE":"3546663","MEAN_ANOMALY":"279.1037","RA_OF_ASC_NODE":"50.7684","ARG_OF_PERICENTER":"81.0096","SITE":"AFETR","GP_ID":"210932067","ECCENTRICITY":"0.00012760","OBJECT_ID":"2020-012N","PERIOD":"95.593","TLE_LINE2":"2 45190  53.0559  50.7684 0001276  81.0096 279.1037 15.06385551140427","REF_FRAME":"TEME","COUNTRY_CODE":"US","APOAPSIS":"548.142","MEAN_MOTION_DDOT":"0.0000000000000","OBJECT_TYPE":"PAYLOAD","EPHEMERIS_TYPE":"0","OBJECT_NAME":"STARLINK-1234","REV_AT_EPOCH":"14042","BSTAR":"0.00017475000000","ELEMENT_SET_NO":"999","INCLINATION":"53.0559","EPOCH":"2022-08-24T18:30:52.717536","PERIAPSIS":"546.374","RCS_SIZE":"LARGE","NORAD_CAT_ID":"45190","SEMIMAJOR_AXIS":"6925.393","TLE_LINE1":"1 45190U 20012N   22236.77144349  .00002321  00000-0  17475-3 0  9993","TIME_SYSTEM":"UTC"},{"MEAN_ANOMALY":"271.5446","RA_OF_ASC_NODE":"91.7035","ECCENTRICITY":"0.00013950","GP_ID":"210898215","SITE":"AFETR","ARG_OF_PERICENTER":"88.5703","TLE_LINE2":"2 45191  53.0540  91.7035 0001395  88.5703 271.5446 15.06396340137145","PERIOD":"95.592","OBJECT_ID":"2020-012P","MEAN_MOTION_DOT":"0.00001263","MEAN_MOTION":"15.06396340","DECAY_DATE":null,"CENTER_NAME":"EARTH","MEAN_ELEMENT_THEORY":"SGP4","LAUNCH_DATE":"2020-02-17","FILE":"3546350","CLASSIFICATION_TYPE":"U","INCLINATION":"53.0540","ELEMENT_SET_NO":"999","RCS_SIZE":"LARGE","PERIAPSIS":"546.259","EPOCH":"2022-08-24T13:28:19.774272","TLE_LINE1":"1 45191U 20012P   22236.56133998  .00001263  00000-0  10371-3 0  9991","SEMIMAJOR_AXIS":"6925.360","NORAD_CAT_ID":"45191","TIME_SYSTEM":"UTC","REF_FRAME":"TEME","APOAPSIS":"548.191","MEAN_MOTION_DDOT":"0.0000000000000","COUNTRY_CODE":"US","EPHEMERIS_TYPE":"0","OBJECT_TYPE":"PAYLOAD","BSTAR":"0.00010371000000","REV_AT_EPOCH":"13714","OBJECT_NAME":"STARLINK-1236"}];
